SL-16 R/B               
1 23405U 94077B   26204.51252559  .00000302  00000+0  17890-3 0  9991
2 23405  70.9822  66.7404 0004265 297.0972  62.9716 14.15577366635453
ARIANE 40+ R/B          
1 23561U 95021B   26204.18987135  .00000197  00000+0  76458-4 0  9990
2 23561  98.4394 273.7417 0007983  96.2546 322.6166 14.39850800638748
SL-16 R/B               
1 23705U 95058B   26204.31403325  .00000210  00000+0  13156-3 0  9990
2 23705  71.0203 255.5094 0014784 272.4810  87.4620 14.15513533587042
SL-16 R/B               
1 24298U 96051B   26204.36165840  .00000159  00000+0  11242-3 0  9990
2 24298  70.7639 248.0951 0018349 287.5632  72.3483 14.12459817540802
ORBVIEW 2 (SEASTAR)     
1 24883U 97037A   26204.33303819  .00000183  00000+0  79708-4 0  9991
2 24883  98.8722  12.3603 0002750  43.9924 316.1479 14.35569680527937
SL-16 R/B               
1 25400U 98043G   26204.35617282  .00000041  00000+0  36348-4 0  9995
2 25400  98.8384 158.8308 0009609 347.8252  12.2694 14.26073808458326
SL-16 R/B               
1 25407U 98045B   26204.39969003  .00000244  00000+0  14728-3 0  9991
2 25407  71.0097 256.1743 0007732 194.7119 165.3781 14.16206476446319
ISS (ZARYA)             
1 25544U 98067A   26204.24989916  .00009534  00000+0  18022-3 0  9998
2 25544  51.6313 121.6296 0006905 328.4486  31.6087 15.49111598577348
CZ-4B R/B               
1 25732U 99025C   26204.10982418  .00000012  00000+0  26698-4 0  9998
2 25732  98.6467 245.0411 0036267 316.5643  66.7300 14.18288621407363
OKEAN-O                 
1 25860U 99039A   26204.50630833  .00000463  00000+0  67254-4 0  9993
2 25860  97.9293 262.8835 0000940 102.7494 257.3823 14.80504211454487
SL-16 R/B               
1 25861U 99039B   26204.15680111  .00000421  00000+0  59959-4 0  9996
2 25861  97.9815 262.9133 0014960 172.3789 187.7654 14.81876595456924
DELTA 2 R/B             
1 25876U 99041E   26204.48597350  .00001511  00000+0  28128-3 0  9997
2 25876  51.7616 118.7666 0501477  29.2332 333.5699 14.12109838382217
HELIOS 1B               
1 25977U 99064A   26204.55705132  .00001188  00000+0  13554-3 0  9998
2 25977  98.1574 110.7444 0001550  44.5093 315.6247 14.88091019705464
TERRA                   
1 25994U 99068A   26204.60548284  .00000313  00000+0  72618-4 0  9996
2 25994  97.9436 252.7039 0003658 106.2542  53.1960 14.61128532414926
SL-16 R/B               
1 26070U 00006B   26204.30892952  .00000339  00000+0  19615-3 0  9992
2 26070  71.0014 172.6725 0017570 328.6597  31.3477 14.15840758367756
TITAN 4B R/B            
1 26474U 00047B   26204.55091246  .00002789  00000+0  17378-3 0  9994
2 26474  67.9892  18.2011 0045722 250.3412 109.2801 15.10365295413428
ENVISAT                 
1 27386U 02009A   26204.35541921  .00000067  00000+0  35544-4 0  9998
2 27386  98.3851 154.8710 0001289  82.1500  84.5138 14.39072151278687
IDEFIX & ARIANE 42P R/B 
1 27422U 02021B   26204.34649052  .00000161  00000+0  77780-4 0  9999
2 27422  98.5941 141.4388 0012370 143.2487 216.9546 14.31096471263422
AQUA                    
1 27424U 02022A   26204.60223932  .00000630  00000+0  13511-3 0  9998
2 27424  98.4303 174.6185 0001373 102.1037 347.1797 14.62137586288591
CZ-4B R/B               
1 27432U 02024C   26204.61482933  .00000011  00000+0  28391-4 0  9994
2 27432  98.8678 257.1944 0050031 358.1214 154.6194 14.14569187248450
MIDORI II (ADEOS-II)    
1 27597U 02056A   26204.32865797  .00000193  00000+0  93557-4 0  9999
2 27597  98.7900 163.9003 0001119  30.0016 330.1229 14.29366078229671
H-2A R/B                
1 27601U 02056E   26204.31956625  .00000226  00000+0  93501-4 0  9991
2 27601  98.3333 159.6810 0071242 117.0369  48.7746 14.33837314233540
CZ-4B R/B               
1 28059U 03049C   26204.46962377  .00000255  00000+0  69928-4 0  9997
2 28059  98.6916 204.7638 0048152 175.9241 184.2357 14.55120001206348
CZ-2C R/B               
1 28222U 04012C   26204.19413049  .00172298  00000+0  64998-3 0  9995
2 28222  97.7022 284.2648 0010276 167.2657 192.8875 15.87227485225591
SL-16 R/B               
1 28353U 04021B   26204.36576156 -.00000230  00000+0 -94719-4 0  9991
2 28353  71.0025 307.7626 0006005 217.1052 142.9656 14.14615242142020
CZ-4B R/B               
1 28415U 04035C   26204.54077083  .00007312  00000+0  24280-3 0  9991
2 28415  97.3357 237.2128 0030001 202.0029 157.9926 15.31078211200684
CZ-2C R/B               
1 28480U 04046B   26204.30171071  .00000112  00000+0  56031-4 0  9992
2 28480  98.1906 110.8184 0140485 113.5608 248.0402 14.27035251127848
ARIANE 5 R/B            
1 28499U 04049H   26204.43681940  .00000522  00000+0  64246-4 0  9992
2 28499  98.2748  18.0977 0082502 271.1407  88.0356 14.85486127165944
CZ-2D R/B               
1 28738U 05024B   26204.32125205  .00070120  00000+0  49988-3 0  9993
2 28738  97.3473 225.6614 0003783 173.0250 187.1068 15.73603251161011
ALOS (DAICHI)           
1 28931U 06002A   26204.36870542  .00000984  00000+0  17190-3 0  9991
2 28931  98.1342 159.8290 0001035 110.9546 249.1770 14.70114782 93413
