OBJECT_NAME,OBJECT_ID,EPOCH,MEAN_MOTION,ECCENTRICITY,INCLINATION,RA_OF_ASC_NODE,ARG_OF_PERICENTER,MEAN_ANOMALY,EPHEMERIS_TYPE,CLASSIFICATION_TYPE,NORAD_CAT_ID,ELEMENT_SET_NO,REV_AT_EPOCH,BSTAR,MEAN_MOTION_DOT,MEAN_MOTION_DDOT
SL-16 R/B,1994-077B,2026-07-23T12:18:02.210976,14.15577366,.00042653,70.9822,66.7404,297.0972,62.9716,0,U,23405,999,63545,.17889771E-3,.302E-5,0
ARIANE 40+ R/B,1995-021B,2026-07-23T04:33:24.884640,14.39850800,.00079835,98.4394,273.7417,96.2546,322.6166,0,U,23561,999,63874,.76458012E-4,.197E-5,0
SL-16 R/B,1995-058B,2026-07-23T07:32:12.472800,14.15513533,.00147849,71.0203,255.5094,272.4810,87.4620,0,U,23705,999,58704,.13155565E-3,.21E-5,0
SL-16 R/B,1996-051B,2026-07-23T08:40:47.285760,14.12459817,.00183498,70.7639,248.0951,287.5632,72.3483,0,U,24298,999,54080,.11241773E-3,.159E-5,0
ORBVIEW 2 (SEASTAR),1997-037A,2026-07-23T07:59:34.499616,14.35569680,.00027504,98.8722,12.3603,43.9924,316.1479,0,U,24883,999,52793,.79707923E-4,.183E-5,0
SL-16 R/B,1998-043G,2026-07-23T08:32:53.331648,14.26073808,.00096099,98.8384,158.8308,347.8252,12.2694,0,U,25400,999,45832,.36348176E-4,.41E-6,0
SL-16 R/B,1998-045B,2026-07-23T09:35:33.218592,14.16206476,.00077326,71.0097,256.1743,194.7119,165.3781,0,U,25407,999,44631,.14728196E-3,.244E-5,0
ISS (ZARYA),1998-067A,2026-07-23T05:59:51.287424,15.49111598,.00069057,51.6313,121.6296,328.4486,31.6087,0,U,25544,999,57734,.18022249E-3,.9534E-4,0
CZ-4B R/B,1999-025C,2026-07-23T02:38:08.809152,14.18288621,.00362677,98.6467,245.0411,316.5643,66.7300,0,U,25732,999,40736,.26697924E-4,.12E-6,0
OKEAN-O,1999-039A,2026-07-23T12:09:05.039712,14.80504211,.00009407,97.9293,262.8835,102.7494,257.3823,0,U,25860,999,45448,.67254247E-4,.463E-5,0
SL-16 R/B,1999-039B,2026-07-23T03:45:47.615904,14.81876595,.00149609,97.9815,262.9133,172.3789,187.7654,0,U,25861,999,45692,.59959306E-4,.421E-5,0
DELTA 2 R/B,1999-041E,2026-07-23T11:39:48.110400,14.12109838,.05014773,51.7616,118.7666,29.2332,333.5699,0,U,25876,999,38221,.28128139E-3,.1511E-4,0
HELIOS 1B,1999-064A,2026-07-23T13:22:09.234048,14.88091019,.00015507,98.1574,110.7444,44.5093,315.6247,0,U,25977,999,70546,.13554258E-3,.1188E-4,0
TERRA,1999-068A,2026-07-23T14:31:53.717376,14.61128532,.0003658,97.9436,252.7039,106.2542,53.1960,0,U,25994,999,41492,.72618036E-4,.313E-5,0
SL-16 R/B,2000-006B,2026-07-23T07:24:51.510528,14.15840758,.00175704,71.0014,172.6725,328.6597,31.3477,0,U,26070,999,36775,.19614626E-3,.339E-5,0
TITAN 4B R/B,2000-047B,2026-07-23T13:13:18.836544,15.10365295,.00457226,67.9892,18.2011,250.3412,109.2801,0,U,26474,999,41342,.17378206E-3,.2789E-4,0
ENVISAT,2002-009A,2026-07-23T08:31:48.219744,14.39072151,.00012899,98.3851,154.8710,82.1500,84.5138,0,U,27386,999,27868,.35544461E-4,.67E-6,0
IDEFIX & ARIANE 42P R/B,2002-021B,2026-07-23T08:18:56.780928,14.31096471,.00123705,98.5941,141.4388,143.2487,216.9546,0,U,27422,999,26342,.777796E-4,.161E-5,0
AQUA,2002-022A,2026-07-23T14:27:13.477248,14.62137586,.00013736,98.4303,174.6185,102.1037,347.1797,0,U,27424,999,28859,.13511482E-3,.63E-5,0
CZ-4B R/B,2002-024C,2026-07-23T14:45:21.254112,14.14569187,.00500318,98.8678,257.1944,358.1214,154.6194,0,U,27432,999,24845,.28391258E-4,.11E-6,0
MIDORI II (ADEOS-II),2002-056A,2026-07-23T07:53:16.048608,14.29366078,.00011191,98.7900,163.9003,30.0016,330.1229,0,U,27597,999,22967,.93556772E-4,.193E-5,0
H-2A R/B,2002-056E,2026-07-23T07:40:10.524000,14.33837314,.00712428,98.3333,159.6810,117.0369,48.7746,0,U,27601,999,23354,.93500884E-4,.226E-5,0
CZ-4B R/B,2003-049C,2026-07-23T11:16:15.493728,14.55120001,.00481525,98.6916,204.7638,175.9241,184.2357,0,U,28059,999,20634,.69927722E-4,.255E-5,0
CZ-2C R/B,2004-012C,2026-07-23T04:39:32.874336,15.87227485,.00102769,97.7022,284.2648,167.2657,192.8875,0,U,28222,999,22559,.64998201E-3,.172298E-2,0
SL-16 R/B,2004-021B,2026-07-23T08:46:41.798784,14.14615242,.00060051,71.0025,307.7626,217.1052,142.9656,0,U,28353,999,14202,-.9471877E-4,-.23E-5,0
CZ-4B R/B,2004-035C,2026-07-23T12:58:42.599712,15.31078211,.00300012,97.3357,237.2128,202.0029,157.9926,0,U,28415,999,20068,.24280242E-3,.7312E-4,0
CZ-2C R/B,2004-046B,2026-07-23T07:14:27.805344,14.27035251,.01404857,98.1906,110.8184,113.5608,248.0402,0,U,28480,999,12784,.56030737E-4,.112E-5,0
ARIANE 5 R/B,2004-049H,2026-07-23T10:29:01.196160,14.85486127,.00825022,98.2748,18.0977,271.1407,88.0356,0,U,28499,999,16594,.64245854E-4,.522E-5,0
CZ-2D R/B,2005-024B,2026-07-23T07:42:36.177120,15.73603251,.00037834,97.3473,225.6614,173.0250,187.1068,0,U,28738,999,16101,.49988026E-3,.7012E-3,0
ALOS (DAICHI),2006-002A,2026-07-23T08:50:56.148288,14.70114782,.0001035,98.1342,159.8290,110.9546,249.1770,0,U,28931,999,9341,.17189797E-3,.984E-5,0
